ONEWEB-0228             
1 48780U 21045P   24196.62072246  .00000141  00000+0  34359-3 0  9992
2 48780  87.9015  38.9880 0001822  81.7032 278.4304 13.15070192151957
